OBJECT_NAME,OBJECT_ID,EPOCH,MEAN_MOTION,ECCENTRICITY,INCLINATION,RA_OF_ASC_NODE,ARG_OF_PERICENTER,MEAN_ANOMALY,EPHEMERIS_TYPE,CLASSIFICATION_TYPE,NORAD_CAT_ID,ELEMENT_SET_NO,REV_AT_EPOCH,BSTAR,MEAN_MOTION_DOT,MEAN_MOTION_DDOT
SKY MUSTER 2 (NBN1B),2016-060B,2026-05-22T16:32:36.039264,1.00270825,.0001468,0.0153,296.1980,117.2759,219.7863,0,U,41794,999,3526,0,-.252E-5,0
HIMAWARI-9,2016-064A,2026-05-22T16:31:28.647264,1.00273863,.0000693,0.0376,138.1525,329.1880,161.5997,0,U,41836,999,3495,0,-.282E-5,0
SHIJIAN-17 (SJ-17),2016-065A,2026-05-22T14:15:35.742816,0.99854771,.0001685,5.6905,72.9050,8.7510,286.7347,0,U,41838,999,3494,0,-.155E-5,0
CAS-2T & KS-1Q,2016-066G,2026-05-22T03:04:30.330912,14.44604179,.03415347,98.3826,218.1602,208.4552,149.7616,0,U,41847,999,50103,.12038553E-3,.79E-5,0
RAVAN,2016-067B,2026-05-22T14:22:03.506016,15.52044891,.0007127,97.9920,29.2648,94.6701,265.5363,0,U,41849,999,52372,.64049E-3,.38657E-3,0
CELTEE 1,2016-067C,2026-05-22T03:07:32.092320,15.19389037,.000134,98.0704,6.9211,55.0446,305.0912,0,U,41850,999,52192,.17351224E-3,.3594E-4,0
OPTICUBE 04,2016-067D,2026-05-22T13:26:06.770976,15.09534062,.0015085,98.0724,353.5053,199.5657,160.4993,0,U,41851,999,52130,.85143E-4,.1297E-4,0
AEROCUBE 8D,2016-067E,2026-05-22T02:13:23.865312,15.23981888,.0002585,98.0713,10.2823,200.5003,159.6129,0,U,41852,999,52209,.22456952E-3,.5355E-4,0
AEROCUBE 8C,2016-067F,2026-05-22T02:55:24.070368,15.24222178,.00062527,98.0587,7.5754,139.1399,221.0307,0,U,41853,999,52209,.23037614E-3,.5538E-4,0
YUNHAI-1 01,2016-068A,2026-05-22T07:49:40.184256,14.32719759,.0006577,98.5839,153.5743,105.9008,254.2901,0,U,41857,999,49812,.14436E-3,.349E-5,0
GSAT0207 (GALILEO 15),2016-069A,2026-05-22T12:31:58.740096,1.70473747,.0005744,55.4838,101.7958,323.1392,36.7807,0,U,41859,999,5896,0,.2E-6,0
GSAT0212 (GALILEO 16),2016-069B,2026-05-21T04:51:35.161920,1.70473876,.0004744,55.4806,101.8273,348.3152,11.6290,0,U,41860,999,5919,0,.2E-6,0
GSAT0213 (GALILEO 17),2016-069C,2026-05-22T03:45:10.507104,1.70474283,.0005535,55.4834,101.8089,308.0074,51.9012,0,U,41861,999,5907,0,.21E-6,0
GSAT0214 (GALILEO 18),2016-069D,2026-05-21T03:06:16.160544,1.70474060,.00047035,55.4813,101.8300,313.4466,46.4692,0,U,41862,999,5918,0,.2E-6,0
GOES 16,2016-071A,2026-05-22T14:41:56.397984,1.00272238,.0000888,0.2785,85.6545,263.6962,6.6982,0,U,41866,999,3484,0,-.99E-6,0
TIANLIAN 1-04,2016-072A,2026-05-22T16:41:50.153568,1.00271876,.0041017,0.8024,83.0076,90.5959,133.9563,0,U,41869,999,3504,0,.23E-6,0
GOKTURK 1A,2016-073A,2026-05-22T17:32:27.395232,14.62752411,.0001451,98.1272,37.8008,81.0973,279.0393,0,U,41875,999,50510,.14922E-4,.29E-6,0
RESOURCESAT-2A,2016-074A,2026-05-22T17:35:44.356128,14.21608077,.0002919,98.7523,216.4442,131.7877,228.3550,0,U,41877,999,49068,.10614E-3,.189E-5,0
WGS F8 (USA 272),2016-075A,2026-05-22T16:34:05.896128,1.00272005,.0000179,0.0050,357.2034,359.2129,282.2196,0,U,41879,999,3456,0,-.21E-5,0
FENGYUN 4A,2016-077A,2026-05-22T18:09:16.802208,1.00265277,.0008539,2.2607,80.5382,146.3161,49.4855,0,U,41882,999,3467,0,-.364E-5,0
CYGFM05,2016-078A,2026-05-22T04:42:21.065760,15.55399442,.0009075,34.9574,72.5374,267.6891,92.2794,0,U,41884,999,52470,.26079E-3,.18357E-3,0
CYGFM04,2016-078B,2026-05-22T18:09:45.497376,15.59925591,.0008138,34.9335,37.7574,309.0146,50.9854,0,U,41885,999,52502,.28945E-3,.24186E-3,0
CYGFM02,2016-078C,2026-05-22T17:44:41.701056,15.62447045,.0009304,34.9418,33.1066,311.5780,48.4148,0,U,41886,999,52518,.29789E-3,.27476E-3,0
CYGFM01,2016-078D,2026-05-22T12:23:51.681696,15.56047677,.0008787,34.9405,71.6790,264.8920,95.0801,0,U,41887,999,52470,.27393E-3,.19757E-3,0
CYGFM08,2016-078E,2026-05-22T18:35:40.731936,15.58538819,.0010149,34.9439,50.1954,293.9141,66.0520,0,U,41888,999,52500,.28983E-3,.22984E-3,0
CYGFM07,2016-078G,2026-05-22T17:39:10.368288,15.58632726,.000854,34.9457,38.8201,308.3886,51.6071,0,U,41890,999,52502,.28613E-3,.22754E-3,0
CYGFM03,2016-078H,2026-05-22T18:29:30.734304,15.58634542,.000803,34.9412,40.5334,297.9619,62.0293,0,U,41891,999,52500,.28793E-3,.22895E-3,0
ECHOSTAR 19,2016-079A,2026-05-22T13:40:55.992000,1.00271582,.000114,0.0146,346.3422,80.5965,281.3901,0,U,41893,999,3444,0,-.147E-5,0
ARASE (ERG),2016-080A,2026-05-21T04:25:36.768576,2.57642861,.6993115,31.9374,19.0078,31.0043,355.9916,0,U,41896,999,8758,.13678E-2,.634E-5,0
TANSAT,2016-081A,2026-05-22T18:04:24.167136,14.59924873,.002133,98.5369,142.2605,30.9530,329.2921,0,U,41898,999,50091,.13028E-4,.12E-6,0
YIJIAN,2016-081B,2026-05-22T10:37:21.244800,14.60728457,.0021601,98.5375,139.5455,31.7700,328.4798,0,U,41899,999,50083,.83887E-4,.359E-5,0
