SKY MUSTER 2 (NBN1B)    
1 41794U 16060B   26142.68930601 -.00000252  00000+0  00000+0 0  9994
2 41794   0.0153 296.1980 0001468 117.2759 219.7863  1.00270825 35269
HIMAWARI-9              
1 41836U 16064A   26142.68852601 -.00000282  00000+0  00000+0 0  9991
2 41836   0.0376 138.1525 0000693 329.1880 161.5997  1.00273863 34953
SHIJIAN-17 (SJ-17)      
1 41838U 16065A   26142.59416369 -.00000155  00000+0  00000+0 0  9990
2 41838   5.6905  72.9050 0001685   8.7510 286.7347  0.99854771 34942
CAS-2T & KS-1Q          
1 41847U 16066G   26142.12812883  .00000790  00000+0  12039-3 0  9994
2 41847  98.3826 218.1602 0341534 208.4552 149.7616 14.44604179501031
RAVAN                   
1 41849U 16067B   26142.59865169  .00038657  00000+0  64049-3 0  9994
2 41849  97.9920  29.2648 0007127  94.6701 265.5363 15.52044891523727
CELTEE 1                
1 41850U 16067C   26142.13023255  .00003594  00000+0  17351-3 0  9994
2 41850  98.0704   6.9211 0001340  55.0446 305.0912 15.19389037521924
OPTICUBE 04             
1 41851U 16067D   26142.55980059  .00001297  00000+0  85143-4 0  9998
2 41851  98.0724 353.5053 0015085 199.5657 160.4993 15.09534062521304
AEROCUBE 8D             
1 41852U 16067E   26142.09263733  .00005355  00000+0  22457-3 0  9998
2 41852  98.0713  10.2823 0002585 200.5003 159.6129 15.23981888522090
AEROCUBE 8C             
1 41853U 16067F   26142.12180637  .00005538  00000+0  23038-3 0  9993
2 41853  98.0587   7.5754 0006252 139.1399 221.0307 15.24222178522095
YUNHAI-1 01             
1 41857U 16068A   26142.32615954  .00000349  00000+0  14436-3 0  9992
2 41857  98.5839 153.5743 0006577 105.9008 254.2901 14.32719759498120
GSAT0207 (GALILEO 15)   
1 41859U 16069A   26142.52220764  .00000020  00000+0  00000+0 0  9992
2 41859  55.4838 101.7958 0005744 323.1392  36.7807  1.70473747 58965
GSAT0212 (GALILEO 16)   
1 41860U 16069B   26141.20249030  .00000020  00000+0  00000+0 0  9995
2 41860  55.4806 101.8273 0004744 348.3152  11.6290  1.70473876 59192
GSAT0213 (GALILEO 17)   
1 41861U 16069C   26142.15637161  .00000021  00000+0  00000+0 0  9998
2 41861  55.4834 101.8089 0005535 308.0074  51.9012  1.70474283 59073
GSAT0214 (GALILEO 18)   
1 41862U 16069D   26141.12935371  .00000020  00000+0  00000+0 0  9998
2 41862  55.4813 101.8300 0004703 313.4466  46.4692  1.70474060 59186
GOES 16                 
1 41866U 16071A   26142.61245831 -.00000099  00000+0  00000+0 0  9992
2 41866   0.2785  85.6545 0000888 263.6962   6.6982  1.00272238 34845
TIANLIAN 1-04           
1 41869U 16072A   26142.69571937  .00000023  00000+0  00000+0 0  9999
2 41869   0.8024  83.0076 0041017  90.5959 133.9563  1.00271876 35042
GOKTURK 1A              
1 41875U 16073A   26142.73087263  .00000029  00000+0  14922-4 0  9995
2 41875  98.1272  37.8008 0001451  81.0973 279.0393 14.62752411505108
RESOURCESAT-2A          
1 41877U 16074A   26142.73315227  .00000189  00000+0  10614-3 0  9992
2 41877  98.7523 216.4442 0002919 131.7877 228.3550 14.21608077490689
WGS F8 (USA 272)        
1 41879U 16075A   26142.69034602 -.00000210  00000+0  00000+0 0  9995
2 41879   0.0050 357.2034 0000179 359.2129 282.2196  1.00272005 34563
FENGYUN 4A              
1 41882U 16077A   26142.75644447 -.00000364  00000+0  00000+0 0  9992
2 41882   2.2607  80.5382 0008539 146.3161  49.4855  1.00265277 34670
CYGFM05                 
1 41884U 16078A   26142.19607715  .00018357  00000+0  26079-3 0  9998
2 41884  34.9574  72.5374 0009075 267.6891  92.2794 15.55399442524705
CYGFM04                 
1 41885U 16078B   26142.75677659  .00024186  00000+0  28945-3 0  9996
2 41885  34.9335  37.7574 0008138 309.0146  50.9854 15.59925591525027
CYGFM02                 
1 41886U 16078C   26142.73937154  .00027476  00000+0  29789-3 0  9996
2 41886  34.9418  33.1066 0009304 311.5780  48.4148 15.62447045525186
CYGFM01                 
1 41887U 16078D   26142.51657039  .00019757  00000+0  27393-3 0  9996
2 41887  34.9405  71.6790 0008787 264.8920  95.0801 15.56047677524705
CYGFM08                 
1 41888U 16078E   26142.77477699  .00022984  00000+0  28983-3 0  9999
2 41888  34.9439  50.1954 0010149 293.9141  66.0520 15.58538819525005
CYGFM07                 
1 41890U 16078G   26142.73553667  .00022754  00000+0  28613-3 0  9993
2 41890  34.9457  38.8201 0008540 308.3886  51.6071 15.58632726525020
CYGFM03                 
1 41891U 16078H   26142.77049461  .00022895  00000+0  28793-3 0  9995
2 41891  34.9412  40.5334 0008030 297.9619  62.0293 15.58634542525008
ECHOSTAR 19             
1 41893U 16079A   26142.57009250 -.00000147  00000+0  00000+0 0  9992
2 41893   0.0146 346.3422 0001140  80.5965 281.3901  1.00271582 34446
ARASE (ERG)             
1 41896U 16080A   26141.18445334  .00000634  00000+0  13678-2 0  9998
2 41896  31.9374  19.0078 6993115  31.0043 355.9916  2.57642861 87584
TANSAT                  
1 41898U 16081A   26142.75305749  .00000012  00000+0  13028-4 0  9991
2 41898  98.5369 142.2605 0021330  30.9530 329.2921 14.59924873500916
YIJIAN                  
1 41899U 16081B   26142.44260700  .00000359  00000+0  83887-4 0  9999
2 41899  98.5375 139.5455 0021601  31.7700 328.4798 14.60728457500831
